EUTELSAT 21B            
1 38992U 12062B   25326.02003360  .00000152  00000+0  00000+0 0  9990
2 38992   0.0685 355.3175 0003272 256.9375 197.8467  1.00269016 47752
EUTELSAT 70B            
1 39020U 12069A   25326.02974035 -.00000022  00000+0  00000+0 0  9993
2 39020   0.0657   7.3438 0004475 227.9130 267.2353  1.00271675 47438
EUTELSAT 117 WEST A     
1 39122U 13012A   25326.07750447  .00000009  00000+0  00000+0 0  9993
2 39122   0.0142 330.1190 0002663 265.2848  97.0394  1.00271339 46351
EUTELSAT 7B             
1 39163U 13022A   25326.08852321  .00000070  00000+0  00000+0 0  9992
2 39163   0.0717  10.8663 0003575 303.6699 145.6801  1.00270869 45882
EXPRESS-AT1             
1 39612U 14010A   25326.16953948  .00000100  00000+0  00000+0 0  9999
2 39612   0.0156 284.9061 0000837 144.0263 109.5423  1.00272665 42743
EXPRESS-AT2             
1 39613U 14010B   25326.18600624 -.00000259  00000+0  00000+0 0  9998
2 39613   0.0169 293.6943 0001180   0.8627 333.7153  1.00270824 42420
EUTELSAT 3B             
1 39773U 14030A   25326.08774321  .00000042  00000+0  00000+0 0  9991
2 39773   0.0712  20.3957 0004437 200.7724 234.8731  1.00273186 41996
EUTELSAT 115 WEST B     
1 40425U 15010B   25326.06434307 -.00000003  00000+0  00000+0 0  9999
2 40425   0.0144 141.9783 0000105 139.5154  48.1070  1.00271587 39310
